GPS BIIR-5  (PRN 22)    
1 26407U 00040A   26147.59134797  .00000022  00000+0  00000+0 0  9990
2 26407  54.8543 215.9805 0121307 302.3806 230.5790  2.00557585189535
GPS BIIR-8  (PRN 16)    
1 27663U 03005A   26147.19509756  .00000017  00000+0  00000+0 0  9990
2 27663  54.8855 215.8029 0147939  53.0251 329.5555  2.00561751170893
GPS BIIR-11 (PRN 19)    
1 28190U 04009A   26147.41071382 -.00000082  00000+0  00000+0 0  9998
2 28190  54.8477 276.5263 0115206 172.1743 159.7064  2.00555451162523
GPS BIIR-13 (PRN 02)    
1 28474U 04045A   26147.35767640 -.00000092  00000+0  00000+0 0  9996
2 28474  55.1487 325.7346 0169826 315.8834  42.6857  2.00555051158000
GPS BIIRM-1 (PRN 17)    
1 28874U 05038A   26147.37932212 -.00000080  00000+0  00000+0 0  9991
2 28874  54.8957 274.0169 0127749 296.0244  40.9901  2.00567173151411
GPS BIIRM-2 (PRN 31)    
1 29486U 06042A   26147.07056722  .00000093  00000+0  00000+0 0  9990
2 29486  54.7077 152.1771 0106259  53.9498 318.2551  2.00571081143979
GPS BIIRM-3 (PRN 12)    
1 29601U 06052A   26147.47749753  .00000023  00000+0  00000+0 0  9990
2 29601  54.9367 214.8274 0085547  90.6485 270.4014  2.00557100142996
GPS BIIRM-4 (PRN 15)    
1 32260U 07047A   26147.28368377 -.00000054  00000+0  00000+0 0  9993
2 32260  54.0805  80.9269 0165930  86.9805 274.8865  2.00556326136392
GPS BIIRM-5 (PRN 29)    
1 32384U 07062A   26146.84967097 -.00000082  00000+0  00000+0 0  9993
2 32384  55.0494 275.0101 0035325 164.2474   9.4538  2.00558846135085
GPS BIIRM-6 (PRN 07)    
1 32711U 08012A   26147.19685597  .00000091  00000+0  00000+0 0  9993
2 32711  54.4942 150.7631 0210776 247.5721 110.2082  2.00571922133333
GPS BIIRM-8 (PRN 05)    
1 35752U 09043A   26146.69697003 -.00000108  00000+0  00000+0 0  9995
2 35752  56.1972  28.2957 0053543  82.3233 288.0719  2.00555488122937
GPS BIIF-1  (PRN 25)    
1 36585U 10022A   26147.58046323  .00000036  00000+0  00000+0 0  9990
2 36585  54.2720 209.3923 0126337  66.1084 340.1399  2.00561459117183
GPS BIIF-3  (PRN 24)    
1 38833U 12053A   26147.37645252  .00000082  00000+0  00000+0 0  9998
2 38833  53.5821 144.4516 0179220  65.4698 296.4043  2.00567175 99026
GPS BIIF-4  (PRN 27)    
1 39166U 13023A   26146.74423150 -.00000079  00000+0  00000+0 0  9994
2 39166  54.5214 269.8468 0141720  50.9238 310.3116  2.00563656 95454
GPS BIIF-5  (PRN 30)    
1 39533U 14008A   26147.24423220  .00000088  00000+0  00000+0 0  9999
2 39533  53.6510 150.1738 0084180 230.9118 128.3626  2.00558501 89264
GPS BIIF-6  (PRN 06)    
1 39741U 14026A   26147.51963622 -.00000090  00000+0  00000+0 0  9999
2 39741  56.5083 332.3218 0038390 326.8827  32.8879  2.00562632 88126
GPS BIIF-7  (PRN 09)    
1 40105U 14045A   26147.11248181 -.00000033  00000+0  00000+0 0  9995
2 40105  55.3401  89.3042 0032505 118.5002 241.7947  2.00557055 85655
GPS BIIF-8  (PRN 03)    
1 40294U 14068A   26146.98410646 -.00000106  00000+0  00000+0 0  9991
2 40294  56.9735  31.7715 0066462  69.8246 290.9254  2.00575033 84782
GPS BIIF-9  (PRN 26)    
1 40534U 15013A   26147.12110538  .00000038  00000+0  00000+0 0  9996
2 40534  53.1696 205.0489 0109154  40.0499 320.8270  2.00552733 81404
GPS BIIF-10 (PRN 08)    
1 40730U 15033A   26147.28002439 -.00000076  00000+0  00000+0 0  9996
2 40730  53.9992 267.9482 0115020  30.1346 330.5075  2.00557313 79574
GPS BIIF-11 (PRN 10)    
1 41019U 15062A   26146.83836244 -.00000106  00000+0  00000+0 0  9992
2 41019  56.9454  31.6335 0111455 231.2672 127.7673  2.00567097 77408
GPS BIIF-12 (PRN 32)    
1 41328U 16007A   26146.42929205 -.00000023  00000+0  00000+0 0  9998
2 41328  55.5114  90.3218 0096097 247.3190 111.6330  2.00552784 75405
GPS BIII-1  (PRN 04)    
1 43873U 18109A   26147.31437646 -.00000026  00000+0  00000+0 0  9995
2 43873  55.6703  93.0096 0038079 198.4622 334.2506  2.00560829 54654
GPS BIII-2  (PRN 18)    
1 44506U 19056A   26147.46377017 -.00000092  00000+0  00000+0 0  9995
2 44506  55.6426 331.9653 0060903 197.3139 346.3627  2.00569712 49657
GPS BIII-3  (PRN 23)    
1 45854U 20041A   26142.62388101 -.00000097  00000+0  00000+0 0  9992
2 45854  56.6539  29.9347 0062946 204.8482  23.5433  2.00559157 43529
GPS BIII-4  (PRN 14)    
1 46826U 20078A   26147.56611101  .00000031  00000+0  00000+0 0  9996
2 46826  53.9822 211.6149 0072575 206.6909 325.8061  2.00565013 41090
GPS BIII-5  (PRN 11)    
1 48859U 21054A   26137.34480044 -.00000068  00000+0  00000+0 0  9995
2 48859  55.1880 333.6992 0024563 229.1333 308.8673  2.00570737 36130
GPS BIII-6  (PRN 28)    
1 55268U 23009A   26147.51801933  .00000089  00000+0  00000+0 0  9995
2 55268  55.1209 149.3309 0006205 315.9932  45.8450  2.00573028 24834
GPS BIII-7  (PRN 01)    
1 62339U 24242A   26143.66691069 -.00000087  00000+0  00000+0 0  9990
2 62339  54.8596 335.1744 0017373   3.8345 179.6490  2.00571082 10768
GPS BIII-8  (PRN 21)    
1 64202U 25116A   26147.40359831 -.00000107  00000+0  00000+0 0  9999
2 64202  55.2210  31.9663 0008512 336.5821 207.5323  2.00577525  7454
GPS BIII-9  (PRN 20)    
1 67588U 26017A   26145.76206805 -.00000018  00000+0  00000+0 0  9990
2 67588  55.0748  89.6548 0022675 256.5527 103.1658  2.00571624431165
GPS BIII-10 (PRN 13)    
1 68791U 26087A   26139.48610789  .00000028  00000+0  00000+0 0  9996
2 68791  54.9639 208.9229 0005154 271.7816  81.6763  2.00570690   255
